satname,norad_id,inclination_deg,eccentricity,mean_motion_rev_per_day,perigee_km,apogee_km,l1,l2
STARLINK-1548,46054,53.1585,0.0001257,15.31719545,469.8208367024554,471.54262973198547,1 46054U 20055AD  26136.79188700  .00005066  00000+0  17479-3 0  9996,2 46054  53.1585 157.3841 0001257  87.9530 272.1616 15.31719545319508
STARLINK-1554,46055,53.157,0.0001247,15.31706946,469.86523726001633,471.5733420186525,1 46055U 20055AE  26136.77323126  .00001214  00000+0  50868-4 0  9999,2 46055  53.1570 157.4163 0001247  89.7833 270.3311 15.31706946319509
STARLINK-1564,46058,53.1586,0.000121,15.30207546,474.3632856419299,476.02179139025066,1 46058U 20055AH  26136.54500043  .00002111  00000+0  83357-4 0  9998,2 46058  53.1586 159.1864 0001210  86.0590 274.0549 15.30207546319455
STARLINK-1570,46059,53.1596,0.0001218,15.31710433,469.87470574203326,471.5430846020972,1 46059U 20055AJ  26136.54016523 -.00000053  00000+0  10060-4 0  9999,2 46059  53.1596 158.3811 0001218  83.9053 276.2087 15.31710433319421
STARLINK-1572,46060,53.1594,0.000122,15.3019306,474.3996796061856,476.0719025672097,1 46060U 20055AK  26136.78726515  .00000699  00000+0  35717-4 0  9997,2 46060  53.1594 157.8094 0001220  81.2401 278.8738 15.30193060319464
STARLINK-1573,46061,53.159,0.000124,15.31697198,469.89908607144207,471.5976096377108,1 46061U 20055AL  26136.78718610  .00001771  00000+0  68833-4 0  9992,2 46061  53.1590 157.1998 0001240  88.0029 272.1114 15.31697198319502
STARLINK-1577,46063,53.1598,0.0001199,15.3170783,469.8954769493439,471.5378320556938,1 46063U 20055AN  26136.74990148  .00000566  00000+0  29986-4 0  9995,2 46063  53.1598 157.3693 0001199  76.5676 283.5459 15.31707830319490
STARLINK-1583,46064,53.1592,0.0001625,15.3019916,474.1039073902157,476.3312476279061,1 46064U 20055AP  26136.75140506  .00000788  00000+0  38744-4 0  9990,2 46064  53.1592 157.7251 0001625  91.3590 268.7597 15.30199160319480
STARLINK-1536,46070,53.1605,0.0001288,15.31718824,469.80175430618056,471.56601056549516,1 46070U 20055AV  26136.50422554  .00002045  00000+0  77589-4 0  9994,2 46070  53.1605 146.3998 0001288  80.5723 279.5424 15.31718824319627
STARLINK-1542,46073,53.1587,0.0001236,15.31697073,469.90219819918275,471.5952427492848,1 46073U 20055AY  26137.00002315  .00038553  00000+0  12478-2 0  9999,2 46073  53.1587 147.0546 0001236  93.3577 347.6085 15.31697073  5655
STARLINK-1549,46074,53.0485,0.0003745,15.27648253,480.27529195533043,485.41416727081014,1 46074U 20055AZ  26136.50547064  .00023085  00000+0  85291-3 0  9997,2 46074  53.0485 146.2627 0003745  35.7690 324.3558 15.27648253319607
STARLINK-1551,46075,53.1599,0.0001378,15.30187009,474.30946121780653,476.19825573840353,1 46075U 20055BA  26136.73189148  .00002183  00000+0  85836-4 0  9990,2 46075  53.1599 145.0104 0001378 115.3274 244.7870 15.30187009319653
STARLINK-1552,46076,53.1588,0.0001466,15.31699755,469.73668008342975,471.74477103256413,1 46076U 20055BB  26137.00002315  .00038061  00000+0  12320-2 0  9992,2 46076  53.1588 143.6085 0001466  89.1025 253.3031 15.31699755  5872
STARLINK-1559,46077,53.0217,0.0003136,15.36083045,455.5617236111266,459.8491639918784,1 46077U 20055BC  26136.42726684  .00031733  00000+0  89685-3 0  9998,2 46077  53.0217 116.9649 0003136  28.3358 331.7814 15.36083045319973
STARLINK-1566,46079,53.1601,0.000128,15.31703472,469.852990463256,471.60630032447625,1 46079U 20055BE  26136.74685184 -.00000413  00000+0 -15312-5 0  9995,2 46079  53.1601 144.6378 0001280 101.4432 258.6713 15.31703472319663
STARLINK-1568,46080,53.059,0.0004504,15.52103622,407.5274924692949,413.6427733666269,1 46080U 20055BF  26136.09804674  .00037202  00000+0  61007-3 0  9996,2 46080  53.0590  69.9244 0004504  29.8251 330.3014 15.52103622320642
STARLINK-1578,46082,53.1597,0.0001589,15.31708097,469.627575877078,471.8041413155397,1 46082U 20055BH  26136.49023264  .00001157  00000+0  49044-4 0  9998,2 46082  53.1597 146.3533 0001589  65.1461 294.9706 15.31708097319611
STARLINK-1579,46083,53.1611,0.0001331,15.316915,469.8537444999447,471.67692230109515,1 46083U 20055BJ  26136.73755125 -.00000460  00000+0 -30651-5 0  9997,2 46083  53.1611 144.7367 0001331 107.7269 252.3878 15.31691500319652
STARLINK-1622,46128,53.0154,0.0005145,15.77663628,333.6072147338946,340.51715469496594,1 46128U 20057M   26136.71481363  .00120920  00000+0  70205-3 0  9996,2 46128  53.0154 247.2689 0005145 353.2760   6.8190 15.77663628318052
STARLINK-1623,46129,53.0444,0.0002257,15.70134144,356.99282390900225,360.0337478480478,1 46129U 20057N   26136.68755847  .00090553  00000+0  73106-3 0  9995,2 46129  53.0444 284.1473 0002257 315.8225  44.2611 15.70134144317543
STARLINK-1624,46130,53.0299,0.0012157,16.02676363,258.9319155336125,275.0889269736481,1 46130U 20057P   26136.85288439  .00649617  20831-3  10550-2 0  9996,2 46130  53.0299 249.5492 0012157 317.8326  42.1769 16.02676363319287
STARLINK-1596,46141,53.0373,0.000421,15.55688815,397.2974087379762,403.0047272912443,1 46141U 20057AA  26136.75819270  .00049177  00000+0  70485-3 0  9991,2 46141  53.0373 263.9209 0004210 314.1407  45.9256 15.55688815317832
STARLINK-1597,46142,53.0441,0.0001767,15.6983845,358.16868517298917,360.5497163303344,1 46142U 20057AB  26136.91485704  .00080329  00000+0  65790-3 0  9998,2 46142  53.0441 322.7240 0001767  59.7115 300.4076 15.69838450317016
STARLINK-1606,46144,53.0384,0.0004525,15.81093422,324.31312129401704,330.38158463344917,1 46144U 20057AD  26136.83221800  .00157609  00000+0  77914-3 0  9993,2 46144  53.0384 278.3434 0004525 283.7895  76.2622 15.81093422305887
STARLINK-1608,46146,53.1611,0.0001236,15.33902425,463.33682703393424,465.02824842366135,1 46146U 20057AF  26136.32153973  .00053101  00000+0  15966-2 0  9994,2 46146  53.1611 354.5809 0001236 211.4828 148.6101 15.33902425316546
STARLINK-1667,46155,53.0144,0.0006905,15.80918481,323.21154153519547,332.4724985618823,1 46155U 20057AQ  26136.77092383  .00233381  00000+0  11503-2 0  9993,2 46155  53.0144 246.8831 0006905 348.4182  11.6679 15.80918481319303
STARLINK-1545,46156,53.0407,0.000411,15.76393148,337.908307274628,343.43116641231336,1 46156U 20057AR  26137.00002315  .00014332  00000+0  92741-4 0  9995,2 46156  53.0407 281.0837 0004110 252.9065  18.6748 15.76393148  5946
STARLINK-1595,46159,53.0435,9.73e-05,15.68157819,363.51613495936,364.8281883222153,1 46159U 20057AU  26136.91991628  .00068616  00000+0  60376-3 0  9993,2 46159  53.0435 325.1443 0000973  43.8582 316.2511 15.68157819318246
